NORAD_CAT_ID,OBJECT_NAME,OBJECT_TYPE,EPOCH,MEAN_MOTION,ECCENTRICITY,INCLINATION,RA_OF_ASC_NODE,ARG_OF_PERICENTER,MEAN_ANOMALY,BSTAR,MEAN_MOTION_DOT,MEAN_MOTION_DDOT,TLE_LINE0,TLE_LINE1,TLE_LINE2,SEMIMAJOR_AXIS,PERIOD,APOGEE,PERIGEE,DECAYED
50816.0,STARLINK-3342,PAYLOAD,2022-09-21 18:25:19,15.088463,0.0001846,53.2179,87.5896,61.0482,299.0695,0.00016861,2.397e-05,0.0,0 STARLINK-3342,1 50816U 22001P   22264.76758181  .00002397  00000-0  16861-3 0  9990,2 50816  53.2179  87.5896 0001846  61.0482 299.0695 15.08846300 39447,6917.861,95.437,541.003,538.4490000000002,0.0
50816.0,STARLINK-3342,PAYLOAD,2022-09-22 05:33:01,15.08845028,0.0002097,53.2233,85.5098,42.3688,317.7465,0.00012133,1.644e-05,0.0,0 STARLINK-3342,1 50816U 22001P   22265.23126656  .00001644  00000-0  12133-3 0  9991,2 50816  53.2233  85.5098 0002097  42.3688 317.7465 15.08845028 39516,6917.865,95.437,541.181,538.279,0.0
50816.0,STARLINK-3342,PAYLOAD,2022-09-22 18:16:06,15.08844286,0.0001781999999999,53.2178,83.1292,60.732,299.385,5.3987e-05,5.71e-06,0.0,0 STARLINK-3342,1 50816U 22001P   22265.76118868  .00000571  00000-0  53987-4 0  9996,2 50816  53.2178  83.1292 0001782  60.7320 299.3850 15.08844286 39597,6917.8669999999975,95.437,540.965,538.5,0.0
50816.0,STARLINK-3342,PAYLOAD,2022-09-22 23:02:15,15.08846863,0.0001733999999999,53.2173,82.2374,61.2727,298.8439,7.416399999999999e-05,8.93e-06,0.0,0 STARLINK-3342,1 50816U 22001P   22265.95990602  .00000893  00000-0  74164-4 0  9998,2 50816  53.2173  82.2374 0001734  61.2727 298.8439 15.08846863 39621,6917.859,95.437,540.924,538.525,0.0
50816.0,STARLINK-3342,PAYLOAD,2022-09-23 18:06:53,15.08840117,0.0001804,53.2175,78.67,57.6934,302.4232,-1.108e-05,-4.64e-06,0.0,0 STARLINK-3342,1 50816U 22001P   22266.75479106 -.00000464  00000-0 -11080-4 0  9992,2 50816  53.2175  78.6700 0001804  57.6934 302.4232 15.08840117 39744,6917.88,95.438,540.993,538.497,0.0
50816.0,STARLINK-3342,PAYLOAD,2022-09-23 21:17:40,15.08849316,0.0002164,53.2175,78.0747,71.0565,289.0662,-0.00016515,-2.916e-05,0.0,0 STARLINK-3342,1 50816U 22001P   22266.88726866 -.00002916  00000-0 -16515-3 0  9995,2 50816  53.2175  78.0747 0002164  71.0565 289.0662 15.08849316 41042,6917.852,95.437,541.214,538.22,0.0
50816.0,STARLINK-3342,PAYLOAD,2022-09-24 17:57:40,15.0884933,0.0001823,53.2181,74.2086,58.9551,301.1620000000001,9.5249e-05,1.228e-05,0.0,0 STARLINK-3342,1 50816U 22001P   22267.74838325  .00001228  00000-0  95249-4 0  9990,2 50816  53.2181  74.2086 0001823  58.9551 301.1620 15.08849330 39899,6917.852,95.437,540.9780000000002,538.456,0.0
50816.0,STARLINK-3342,PAYLOAD,2022-09-24 22:43:49,15.08852735,0.0001819,53.2181,73.3161,59.4231,300.6941,0.00012266,1.665e-05,0.0,0 STARLINK-3342,1 50816U 22001P   22267.94709959  .00001665  00000-0  12266-3 0  9994,2 50816  53.2181  73.3161 0001819  59.4231 300.6941 15.08852735 39926,6917.840999999999,95.437,540.965,538.448,0.0
50816.0,STARLINK-3342,PAYLOAD,2022-09-25 16:13:04,15.08839052,0.0001829,53.2185,70.0446,61.0309,299.0866,0.00010567,1.394e-05,0.0,0 STARLINK-3342,1 50816U 22001P   22268.67574738  .00001394  00000-0  10567-3 0  9991,2 50816  53.2185  70.0446 0001829  61.0309 299.0866 15.08839052 40034,6917.8830000000025,95.438,541.014,538.4830000000002,0.0
50816.0,STARLINK-3342,PAYLOAD,2022-09-26 03:20:47,15.08832804,0.0001955,53.2196,67.9615,61.8721,298.2468,2.8442e-05,1.64e-06,0.0,0 STARLINK-3342,1 50816U 22001P   22269.13943406  .00000164  00000-0  28442-4 0  9991,2 50816  53.2196  67.9615 0001955  61.8721 298.2468 15.08832804 41381,6917.901999999999,95.438,541.12,538.415,0.0
50816.0,STARLINK-3342,PAYLOAD,2022-09-26 17:39:14,15.0884886,0.0001793,53.2202,65.2852,72.344,287.7748,-6.1566e-05,-1.268e-05,0.0,0 STARLINK-3342,1 50816U 22001P   22269.73558662 -.00001268  00000-0 -61566-4 0  9995,2 50816  53.2202  65.2852 0001793  72.3440 287.7748 15.08848860 41471,6917.853,95.437,540.9590000000002,538.4780000000002,0.0
50816.0,STARLINK-3342,PAYLOAD,2022-09-27 14:19:15,15.08830098,0.000199,53.2195,61.4204,58.1386,301.98,0.00027552,4.098e-05,0.0,0 STARLINK-3342,1 50816U 22001P   22270.59670826  .00004098  00000-0  27552-3 0  9996,2 50816  53.2195  61.4204 0001990  58.1386 301.9800 15.08830098 41608,6917.911,95.438,541.1519999999998,538.399,0.0
50816.0,STARLINK-3342,PAYLOAD,2022-09-28 09:23:52,15.08843836,0.0001704,53.2193,57.8531,51.054,309.0604,0.0001669,2.369e-05,0.0,0 STARLINK-3342,1 50816U 22001P   22271.39158435  .00002369  00000-0  16690-3 0  9992,2 50816  53.2193  57.8531 0001704  51.0540 309.0604 15.08843836 40441,6917.869000000002,95.437,540.9119999999998,538.555,0.0
50816.0,STARLINK-3342,PAYLOAD,2022-09-29 10:50:04,15.08833229,0.0002018,53.2184,53.0945,60.7479,299.3715,-2.3838e-05,-6.68e-06,0.0,0 STARLINK-3342,1 50816U 22001P   22272.45143794 -.00000668  00000-0 -23838-4 0  9997,2 50816  53.2184  53.0945 0002018  60.7479 299.3715 15.08833229 40602,6917.901,95.438,541.1619999999998,538.37,0.0
50816.0,STARLINK-3342,PAYLOAD,2022-09-30 02:43:56,15.08823932,0.0001916999999999,53.2198,50.1211,59.5727,300.5455,-9.1105e-05,-1.737e-05,0.0,0 STARLINK-3342,1 50816U 22001P   22273.11385165 -.00001737  00000-0 -91105-4 0  9991,2 50816  53.2198  50.1211 0001917  59.5727 300.5455 15.08823932 41988,6917.93,95.439,541.121,538.4680000000002,0.0
50816.0,STARLINK-3342,PAYLOAD,2022-09-30 09:05:29,15.08826185,0.0001784,53.2199,48.9324,52.1108,308.0045,-6.2549e-05,-1.283e-05,0.0,0 STARLINK-3342,1 50816U 22001P   22273.37881166 -.00001283  00000-0 -62549-4 0  9997,2 50816  53.2199  48.9324 0001784  52.1108 308.0045 15.08826185 40747,6917.9230000000025,95.438,541.0219999999998,538.553,0.0
50816.0,STARLINK-3342,PAYLOAD,2022-09-30 15:27:01,15.0883125,0.0001972,53.2151,47.7415,53.0535,307.0638,0.00011522,1.546e-05,0.0,0 STARLINK-3342,1 50816U 22001P   22273.64376704  .00001546  00000-0  11522-3 0  9998,2 50816  53.2151  47.7415 0001972  53.0535 307.0638 15.08831250 42069,6917.906999999997,95.438,541.136,538.408,0.0
50816.0,STARLINK-3342,PAYLOAD,2022-09-30 18:37:45,15.08899641,0.000162,53.2169,47.1472,72.3588,287.7581,-0.000881,-0.00014305,0.0,0 STARLINK-3342,1 50816U 22001P   22273.77622082 -.00014305  00000-0 -88100-3 0  9990,2 50816  53.2169  47.1472 0001620  72.3588 287.7581 15.08899641 40806,6917.698,95.434,540.684,538.442,0.0
50816.0,STARLINK-3342,PAYLOAD,2022-10-01 02:34:42,15.0883547,0.0001924,53.2193,45.6618,57.5316,302.5862,0.00030671,4.596e-05,0.0,0 STARLINK-3342,1 50816U 22001P   22274.10744059  .00004596  00000-0  30671-3 0  9996,2 50816  53.2193  45.6618 0001924  57.5316 302.5862 15.08835470 42135,6917.894,95.438,541.09,538.428,0.0
50816.0,STARLINK-3342,PAYLOAD,2022-10-01 13:42:24,15.08855839,0.0001909999999999,53.2178,43.5809,52.0608,308.0557,0.00066091,0.00010251,0.0,0 STARLINK-3342,1 50816U 22001P   22274.57112222  .00010251  00000-0  66091-3 0  9998,2 50816  53.2178  43.5809 0001910  52.0608 308.0557 15.08855839 40924,6917.831999999999,95.437,541.018,538.376,0.0
50816.0,STARLINK-3342,PAYLOAD,2022-10-01 15:17:48,15.08860941,0.0001971,53.2177,43.2839,51.0368,309.0799,0.00079005,0.00012315,0.0,0 STARLINK-3342,1 50816U 22001P   22274.63736330  .00012315  00000-0  79005-3 0  9999,2 50816  53.2177  43.2839 0001971  51.0368 309.0799 15.08860941 40932,6917.816,95.436,541.045,538.318,0.0
50816.0,STARLINK-3342,PAYLOAD,2022-10-02 11:57:48,15.08854232,0.0001876999999999,53.2173,39.4157,52.1224,307.9938,0.00016927,2.408e-05,0.0,0 STARLINK-3342,1 50816U 22001P   22275.49847888  .00002408  00000-0  16927-3 0  9991,2 50816  53.2173  39.4157 0001877  52.1224 307.9938 15.08854232 42341,6917.837,95.437,541.0,538.403,0.0
50816.0,STARLINK-3342,PAYLOAD,2022-10-02 18:19:21,15.08843111,0.000185,53.2182,38.2272,49.8171,310.2983,-2.2261e-05,-6.42e-06,0.0,0 STARLINK-3342,1 50816U 22001P   22275.76344250 -.00000642  00000-0 -22261-4 0  9995,2 50816  53.2182  38.2272 0001850  49.8171 310.2983 15.08843111 41105,6917.871,95.437,541.016,538.456,0.0
50816.0,STARLINK-3342,PAYLOAD,2022-10-03 11:48:35,15.08848287,0.0001751999999999,53.2185,34.9556,59.1192,300.9973,5.365e-05,5.66e-06,0.0,0 STARLINK-3342,1 50816U 22001P   22276.49207519  .00000566  00000-0  53650-4 0  9991,2 50816  53.2185  34.9556 0001752  59.1192 300.9973 15.08848287 41210,6917.855,95.437,540.932,538.508,0.0
50816.0,STARLINK-3342,PAYLOAD,2022-10-03 18:10:07,15.08853449,0.0001904,53.2173,33.7668,51.2883,308.8279,0.00012343,1.677e-05,0.0,0 STARLINK-3342,1 50816U 22001P   22276.75703247  .00001677  00000-0  12343-3 0  9996,2 50816  53.2173  33.7668 0001904  51.2883 308.8279 15.08853449 41253,6917.839,95.437,541.021,538.387,0.0
50816.0,STARLINK-3342,PAYLOAD,2022-10-04 13:14:44,15.08850638,0.0001819,53.2171,30.1981,42.2882,317.825,0.00020868,3.036e-05,0.0,0 STARLINK-3342,1 50816U 22001P   22277.55190885  .00003036  00000-0  20868-3 0  9995,2 50816  53.2171  30.1981 0001819  42.2882 317.8250 15.08850638 41373,6917.848000000001,95.437,540.971,538.455,0.0
50816.0,STARLINK-3342,PAYLOAD,2022-10-04 14:50:08,15.08843905,0.0001785,53.2175,29.9018,47.9032,312.2111,0.00010875,1.443e-05,0.0,0 STARLINK-3342,1 50816U 22001P   22277.61815213  .00001443  00000-0  10875-3 0  9998,2 50816  53.2175  29.9018 0001785  47.9032 312.2111 15.08843905 42662,6917.868,95.437,540.9680000000002,538.499,0.0
50816.0,STARLINK-3342,PAYLOAD,2022-10-04 19:36:17,15.08842235,0.0001868,53.2171,29.0096,43.3179,316.796,6.9453e-05,8.17e-06,0.0,0 STARLINK-3342,1 50816U 22001P   22277.81687268  .00000817  00000-0  69453-4 0  9998,2 50816  53.2171  29.0096 0001868  43.3179 316.7960 15.08842235 41417,6917.874,95.437,541.031,538.446,0.0
50816.0,STARLINK-3342,PAYLOAD,2022-10-05 11:30:09,15.08830568,0.0001978,53.2181,26.0354,50.4338,309.6829,-8.583700000000001e-05,-1.654e-05,0.0,0 STARLINK-3342,1 50816U 22001P   22278.47927787 -.00001654  00000-0 -85837-4 0  9990,2 50816  53.2181  26.0354 0001978  50.4338 309.6829 15.08830568 41512,6917.909000000002,95.438,541.143,538.406,0.0
